FLOCK 4G-21             
1 62651U 25009AU  26117.21234441  .00014397  00000+0  50449-3 0  9992
2 62651  97.3997 199.8879 0003254 121.3160 238.8399 15.29570280 71161
FLOCK 4G-31             
1 62652U 25009AV  26116.76310777  .00013703  00000+0  50286-3 0  9998
2 62652  97.3973 198.6706 0003039 123.3759 236.7771 15.28067222 71054
FLOCK 4G-4              
1 62659U 25009BC  26117.16871764  .00013217  00000+0  48848-3 0  9999
2 62659  97.3956 198.8119 0003879 129.2396 230.9188 15.27839247128713
FLOCK 4G-6              
1 62660U 25009BD  26116.77628570  .00012642  00000+0  45687-3 0  9991
2 62660  97.3947 198.5079 0004647 139.9403 220.2180 15.28584854128646
FLOCK 4G-2              
1 62661U 25009BE  26117.17824383  .00014020  00000+0  50226-3 0  9994
2 62661  97.4012 199.4435 0005475 135.7164 224.4514 15.28846165128738
FLOCK 4G-5              
1 62663U 25009BG  26117.20694034  .00011897  00000+0  41697-3 0  9999
2 62663  97.4026 199.7750 0004845 121.2207 238.9509 15.29605281 71145
FLOCK 4G-1              
1 62666U 25009BK  26116.76014486  .00014179  00000+0  51203-3 0  9999
2 62666  97.4026 199.0150 0005679 135.6660 224.5036 15.28578688 71058
FLOCK 4G-14             
1 62667U 25009BL  26116.76941077  .00014215  00000+0  51917-3 0  9998
2 62667  97.4026 198.8700 0005886 130.7744 229.4007 15.28205986 71045
FLOCK 4G-10             
1 62670U 25009BP  26117.17687492  .00012330  00000+0  45017-3 0  9996
2 62670  97.3931 198.6684 0005717 143.2759 216.8874 15.28249730128747
FLOCK 4G-36             
1 62675U 25009BU  26116.78026936  .00013037  00000+0  47444-3 0  9998
2 62675  97.4016 198.8011 0006090 134.7943 225.3793 15.28343096 71043
FLOCK 4G-15             
1 62678U 25009BX  26117.18274293  .00013996  00000+0  50869-3 0  9996
2 62678  97.4019 199.3351 0006241 131.0855 229.0925 15.28367436128755
FLOCK 4G-30             
1 62679U 25009BY  26116.71494629  .00046468  00000+0  16633-2 0  9992
2 62679  97.3931 198.2324 0005449 148.6481 211.5084 15.28610033128671
FLOCK 4G-18             
1 62680U 25009BZ  26117.18053596  .00013864  00000+0  50428-3 0  9995
2 62680  97.4018 199.1617 0006523 141.2450 218.9259 15.28340842128745
FLOCK 4G-17             
1 62681U 25009CA  26117.21763102  .00013331  00000+0  48272-3 0  9994
2 62681  97.3931 198.9176 0005929 144.0323 216.1317 15.28502806128762
FLOCK 4G-33             
1 62685U 25009CE  26117.20426015  .00007658  00000+0  31097-3 0  9998
2 62685  97.3951 197.6832 0006815 139.6673 220.5071 15.24841977 71030
PELICAN-3               
1 65315U 25188A   26117.12895596  .00010142  00000+0  25079-3 0  9999
2 65315  97.1986 194.0524 0002868 129.9748 230.1751 15.40647585 37454
