[{"OBJECT_NAME":"FLOCK 4G-21","OBJECT_ID":"2025-009AU","EPOCH":"2026-04-27T05:05:46.557024","MEAN_MOTION":15.2957028,"ECCENTRICITY":0.0003254,"INCLINATION":97.3997,"RA_OF_ASC_NODE":199.8879,"ARG_OF_PERICENTER":121.316,"MEAN_ANOMALY":238.8399,"EPHEMERIS_TYPE":0,"CLASSIFICATION_TYPE":"U","NORAD_CAT_ID":62651,"ELEMENT_SET_NO":999,"REV_AT_EPOCH":7116,"BSTAR":0.00050449,"MEAN_MOTION_DOT":0.00014397,"MEAN_MOTION_DDOT":0},{"OBJECT_NAME":"FLOCK 4G-31","OBJECT_ID":"2025-009AV","EPOCH":"2026-04-26T18:18:52.511328","MEAN_MOTION":15.28067222,"ECCENTRICITY":0.00030391,"INCLINATION":97.3973,"RA_OF_ASC_NODE":198.6706,"ARG_OF_PERICENTER":123.3759,"MEAN_ANOMALY":236.7771,"EPHEMERIS_TYPE":0,"CLASSIFICATION_TYPE":"U","NORAD_CAT_ID":62652,"ELEMENT_SET_NO":999,"REV_AT_EPOCH":7105,"BSTAR":0.00050285843,"MEAN_MOTION_DOT":0.00013703,"MEAN_MOTION_DDOT":0},{"OBJECT_NAME":"FLOCK 4G-4","OBJECT_ID":"2025-009BC","EPOCH":"2026-04-27T04:02:57.204096","MEAN_MOTION":15.27839247,"ECCENTRICITY":0.0003879,"INCLINATION":97.3956,"RA_OF_ASC_NODE":198.8119,"ARG_OF_PERICENTER":129.2396,"MEAN_ANOMALY":230.9188,"EPHEMERIS_TYPE":0,"CLASSIFICATION_TYPE":"U","NORAD_CAT_ID":62659,"ELEMENT_SET_NO":999,"REV_AT_EPOCH":12871,"BSTAR":0.00048848,"MEAN_MOTION_DOT":0.00013217,"MEAN_MOTION_DDOT":0},{"OBJECT_NAME":"FLOCK 4G-6","OBJECT_ID":"2025-009BD","EPOCH":"2026-04-26T18:37:51.084480","MEAN_MOTION":15.28584854,"ECCENTRICITY":0.00046471,"INCLINATION":97.3947,"RA_OF_ASC_NODE":198.5079,"ARG_OF_PERICENTER":139.9403,"MEAN_ANOMALY":220.218,"EPHEMERIS_TYPE":0,"CLASSIFICATION_TYPE":"U","NORAD_CAT_ID":62660,"ELEMENT_SET_NO":999,"REV_AT_EPOCH":12864,"BSTAR":0.00045687379,"MEAN_MOTION_DOT":0.00012642,"MEAN_MOTION_DDOT":0},{"OBJECT_NAME":"FLOCK 4G-2","OBJECT_ID":"2025-009BE","EPOCH":"2026-04-27T04:16:40.266912","MEAN_MOTION":15.28846165,"ECCENTRICITY":0.0005475,"INCLINATION":97.4012,"RA_OF_ASC_NODE":199.4435,"ARG_OF_PERICENTER":135.7164,"MEAN_ANOMALY":224.4514,"EPHEMERIS_TYPE":0,"CLASSIFICATION_TYPE":"U","NORAD_CAT_ID":62661,"ELEMENT_SET_NO":999,"REV_AT_EPOCH":12873,"BSTAR":0.00050226,"MEAN_MOTION_DOT":0.0001402,"MEAN_MOTION_DDOT":0},{"OBJECT_NAME":"FLOCK 4G-5","OBJECT_ID":"2025-009BG","EPOCH":"2026-04-27T04:57:59.645376","MEAN_MOTION":15.29605281,"ECCENTRICITY":0.0004845,"INCLINATION":97.4026,"RA_OF_ASC_NODE":199.775,"ARG_OF_PERICENTER":121.2207,"MEAN_ANOMALY":238.9509,"EPHEMERIS_TYPE":0,"CLASSIFICATION_TYPE":"U","NORAD_CAT_ID":62663,"ELEMENT_SET_NO":999,"REV_AT_EPOCH":7114,"BSTAR":0.00041697,"MEAN_MOTION_DOT":0.00011897,"MEAN_MOTION_DDOT":0},{"OBJECT_NAME":"FLOCK 4G-1","OBJECT_ID":"2025-009BK","EPOCH":"2026-04-26T18:14:36.515904","MEAN_MOTION":15.28578688,"ECCENTRICITY":0.00056796,"INCLINATION":97.4026,"RA_OF_ASC_NODE":199.015,"ARG_OF_PERICENTER":135.666,"MEAN_ANOMALY":224.5036,"EPHEMERIS_TYPE":0,"CLASSIFICATION_TYPE":"U","NORAD_CAT_ID":62666,"ELEMENT_SET_NO":999,"REV_AT_EPOCH":7105,"BSTAR":0.00051202813,"MEAN_MOTION_DOT":0.00014179,"MEAN_MOTION_DDOT":0},{"OBJECT_NAME":"FLOCK 4G-14","OBJECT_ID":"2025-009BL","EPOCH":"2026-04-26T18:27:57.090528","MEAN_MOTION":15.28205986,"ECCENTRICITY":0.00058867,"INCLINATION":97.4026,"RA_OF_ASC_NODE":198.87,"ARG_OF_PERICENTER":130.7744,"MEAN_ANOMALY":229.4007,"EPHEMERIS_TYPE":0,"CLASSIFICATION_TYPE":"U","NORAD_CAT_ID":62667,"ELEMENT_SET_NO":999,"REV_AT_EPOCH":7104,"BSTAR":0.00051916837,"MEAN_MOTION_DOT":0.00014215,"MEAN_MOTION_DDOT":0},{"OBJECT_NAME":"FLOCK 4G-10","OBJECT_ID":"2025-009BP","EPOCH":"2026-04-27T04:14:41.993088","MEAN_MOTION":15.2824973,"ECCENTRICITY":0.0005717,"INCLINATION":97.3931,"RA_OF_ASC_NODE":198.6684,"ARG_OF_PERICENTER":143.2759,"MEAN_ANOMALY":216.8874,"EPHEMERIS_TYPE":0,"CLASSIFICATION_TYPE":"U","NORAD_CAT_ID":62670,"ELEMENT_SET_NO":999,"REV_AT_EPOCH":12874,"BSTAR":0.00045017,"MEAN_MOTION_DOT":0.0001233,"MEAN_MOTION_DDOT":0},{"OBJECT_NAME":"FLOCK 4G-36","OBJECT_ID":"2025-009BU","EPOCH":"2026-04-26T18:43:35.272704","MEAN_MOTION":15.28343096,"ECCENTRICITY":0.00060909,"INCLINATION":97.4016,"RA_OF_ASC_NODE":198.8011,"ARG_OF_PERICENTER":134.7943,"MEAN_ANOMALY":225.3793,"EPHEMERIS_TYPE":0,"CLASSIFICATION_TYPE":"U","NORAD_CAT_ID":62675,"ELEMENT_SET_NO":999,"REV_AT_EPOCH":7104,"BSTAR":0.000474444,"MEAN_MOTION_DOT":0.00013037,"MEAN_MOTION_DDOT":0},{"OBJECT_NAME":"FLOCK 4G-15","OBJECT_ID":"2025-009BX","EPOCH":"2026-04-27T04:23:08.989152","MEAN_MOTION":15.28367436,"ECCENTRICITY":0.0006241,"INCLINATION":97.4019,"RA_OF_ASC_NODE":199.3351,"ARG_OF_PERICENTER":131.0855,"MEAN_ANOMALY":229.0925,"EPHEMERIS_TYPE":0,"CLASSIFICATION_TYPE":"U","NORAD_CAT_ID":62678,"ELEMENT_SET_NO":999,"REV_AT_EPOCH":12875,"BSTAR":0.00050869,"MEAN_MOTION_DOT":0.00013996,"MEAN_MOTION_DDOT":0},{"OBJECT_NAME":"FLOCK 4G-30","OBJECT_ID":"2025-009BY","EPOCH":"2026-04-26T17:09:31.359456","MEAN_MOTION":15.28610033,"ECCENTRICITY":0.00054491,"INCLINATION":97.3931,"RA_OF_ASC_NODE":198.2324,"ARG_OF_PERICENTER":148.6481,"MEAN_ANOMALY":211.5084,"EPHEMERIS_TYPE":0,"CLASSIFICATION_TYPE":"U","NORAD_CAT_ID":62679,"ELEMENT_SET_NO":999,"REV_AT_EPOCH":12867,"BSTAR":0.0016633327,"MEAN_MOTION_DOT":0.00046468,"MEAN_MOTION_DDOT":0},{"OBJECT_NAME":"FLOCK 4G-18","OBJECT_ID":"2025-009BZ","EPOCH":"2026-04-27T04:19:58.306944","MEAN_MOTION":15.28340842,"ECCENTRICITY":0.0006523,"INCLINATION":97.4018,"RA_OF_ASC_NODE":199.1617,"ARG_OF_PERICENTER":141.245,"MEAN_ANOMALY":218.9259,"EPHEMERIS_TYPE":0,"CLASSIFICATION_TYPE":"U","NORAD_CAT_ID":62680,"ELEMENT_SET_NO":999,"REV_AT_EPOCH":12874,"BSTAR":0.00050428,"MEAN_MOTION_DOT":0.00013864,"MEAN_MOTION_DDOT":0},{"OBJECT_NAME":"FLOCK 4G-17","OBJECT_ID":"2025-009CA","EPOCH":"2026-04-27T05:13:23.320128","MEAN_MOTION":15.28502806,"ECCENTRICITY":0.0005929,"INCLINATION":97.3931,"RA_OF_ASC_NODE":198.9176,"ARG_OF_PERICENTER":144.0323,"MEAN_ANOMALY":216.1317,"EPHEMERIS_TYPE":0,"CLASSIFICATION_TYPE":"U","NORAD_CAT_ID":62681,"ELEMENT_SET_NO":999,"REV_AT_EPOCH":12876,"BSTAR":0.00048272,"MEAN_MOTION_DOT":0.00013331,"MEAN_MOTION_DDOT":0},{"OBJECT_NAME":"FLOCK 4G-33","OBJECT_ID":"2025-009CE","EPOCH":"2026-04-27T04:54:08.076960","MEAN_MOTION":15.24841977,"ECCENTRICITY":0.0006815,"INCLINATION":97.3951,"RA_OF_ASC_NODE":197.6832,"ARG_OF_PERICENTER":139.6673,"MEAN_ANOMALY":220.5071,"EPHEMERIS_TYPE":0,"CLASSIFICATION_TYPE":"U","NORAD_CAT_ID":62685,"ELEMENT_SET_NO":999,"REV_AT_EPOCH":7103,"BSTAR":0.00031097,"MEAN_MOTION_DOT":7.658e-5,"MEAN_MOTION_DDOT":0},{"OBJECT_NAME":"PELICAN-3","OBJECT_ID":"2025-188A","EPOCH":"2026-04-27T03:05:41.794944","MEAN_MOTION":15.40647585,"ECCENTRICITY":0.0002868,"INCLINATION":97.1986,"RA_OF_ASC_NODE":194.0524,"ARG_OF_PERICENTER":129.9748,"MEAN_ANOMALY":230.1751,"EPHEMERIS_TYPE":0,"CLASSIFICATION_TYPE":"U","NORAD_CAT_ID":65315,"ELEMENT_SET_NO":999,"REV_AT_EPOCH":3745,"BSTAR":0.00025079,"MEAN_MOTION_DOT":0.00010142,"MEAN_MOTION_DDOT":0}]
